{
  "norad_id": 67935,
  "name": "STARLINK-36860",
  "history": [
    {
      "epoch": "2026-03-28T23:15:44.896896",
      "apogee_km": 415.46783203514224,
      "perigee_km": 414.504159606955,
      "latitude_deg": 31.35549248617035,
      "longitude_deg": -13.450114560080692,
      "semi_major_axis_km": 6793.122995821049,
      "eccentricity": 7.093e-05,
      "inclination_deg": 43.0003,
      "raan_deg": 83.2156,
      "arg_perigee_deg": 237.257,
      "mean_anomaly_deg": 122.8221,
      "mean_motion_rev_day": 15.50595592
    },
    {
      "epoch": "2026-03-29T00:48:30.269952",
      "apogee_km": 415.7651060495864,
      "perigee_km": 414.22578223774326,
      "latitude_deg": -9.11020308603131,
      "longitude_deg": -7.266366719966754,
      "semi_major_axis_km": 6793.1324441436645,
      "eccentricity": 0.0001133,
      "inclination_deg": 42.9999,
      "raan_deg": 82.838,
      "arg_perigee_deg": 244.0074,
      "mean_anomaly_deg": 116.067,
      "mean_motion_rev_day": 15.50592357
    }
  ]
}